METAR EFHK 271850Z 08006KT 3000 -SN BKN004 00/M00 Q0989 NOSIG
METAR CYEG 281200Z 17008KT 1/2SM OVC240 M06/M11 A2998 RMK CI8 SLP197
METAR LFPG 291300Z 26010KT 7000 3000E -DZ BR BKN004 BKN011 09/08 Q1032 NOSIG
METAR EFHK 291150Z 18017KT 9999 BKN012 00/M02 Q0996 BECMG 2000 -SN BKN008
METAR EFHK 291720Z 15023KT 0800 R04L/1900N R15/1700D R22L/1900D R22R/1900D +SN DRSN VV004 M01/M01 Q0982 TEMPO 0700
METAR KBOS 291654Z 35021G37KT 1/4SM R04R/1400V1600FT +SN FZFG VV005 M08/M10 A2942 RMK AO2 PK WND 36041/1626 PRESFR SLP960 P0002 T10831100 $
METAR ENSG 291050Z 09004KT 3000 0800E RA PRFG FEW/// SCT015 VV025 00/00 Q0977 RMK WIND 3806FT 21022KT
METAR ESSA 301420Z 34021KT 6000 R01L/P2000N R19R///// R01R/P2000N R19L/P2000N -SN OVC015 M03/M05 Q0998 TEMPO 4000
METAR KSEA 311853Z 21007KT 10SM BKN018 OVC023 06/02 A3025 RMK AO2 SLP252 T00560017
METAR KSEA 311753Z 23010KT 10SM OVC015 04/02 A3023 RMK AO2 SLP245 T00440017 10044 20039 53008
METAR KSEA 311653Z 22013G21KT 10SM OVC015 04/01 A3021 RMK AO2 SLP238 T00440011
METAR KSEA 311553Z 22013G19KT 10SM BKN015 OVC025 04/01 A3020 RMK AO2 SLP237 T00440011
METAR KSEA 311453Z 23011KT 10SM BKN016 OVC024 04/01 A3020 RMK AO2 SLP236 T00390006 53018
METAR KSEA 311353Z 22007KT 10SM BKN017 OVC024 04/01 A3018 RMK AO2 SLP230 T00440011
METAR KSEA 311253Z 22015KT 10SM OVC016 04/01 A3016 RMK AO2 SLP222 T00440011
METAR KSEA 311153Z 21009KT 10SM OVC016 04/01 A3015 RMK AO2 SLP217 70028 T00390006 10044 20033 53023
METAR KSEA 311053Z 21007KT 10SM OVC017 04/01 A3012 RMK AO2 SLP208 CIG 015V019 T00390006
METAR KSEA 310953Z 23007KT 10SM BKN017 BKN022 03/01 A3009 RMK AO2 SLP198 T00330006
METAR KSEA 310853Z 25013G18KT 10SM OVC017 04/01 A3008 RMK AO2 SLP194 T00390006 53035
METAR KSEA 310753Z 23014G20KT 10SM OVC018 04/01 A3004 RMK AO2 PK WND 23029/0703 SLP181 T00390006 401170039
METAR KSEA 310728Z 25012G22KT 10SM BKN020 BKN085 04/00 A3003 RMK AO2 PK WND 23029/0703 T00390000
METAR KSEA 310653Z 23014G24KT 10SM SCT020 SCT085 04/00 A2999 RMK AO2 PK WND 21031/0607 SLP166 T00390000
METAR KSEA 310621Z 22017G29KT 10SM SCT021 BKN070 04/00 A2998 RMK AO2 PK WND 21031/0607 T00390000
METAR KSEA 310553Z 22015G26KT 10SM BKN025 04/01 A2997 RMK AO2 PK WND 21030/0535 SLP159 BKN V SCT 60017 T00440006 10089 20044 51032
METAR KSEA 310526Z 21017G26KT 10SM BKN025 04/01 A2996 RMK AO2 PK WND 19026/0526 T00440006
METAR KSEA 310453Z 22016G26KT 10SM SCT015 05/01 A2996 RMK AO2 PK WND 21032/0358 SLP153 T00500006
METAR KSEA 310353Z 21021G31KT 10SM SCT015 SCT021 06/02 A2990 RMK AO2 PK WND 22036/0317 SLP134 T00560022
METAR KSEA 310253Z 21019G29KT 10SM OVC015 06/04 A2988 RMK AO2 PK WND 21040/0237 SLP126 60017 T00610039 53018
METAR KSEA 310223Z 20022G34KT 10SM BKN017 OVC100 07/04 A2987 RMK AO2 PK WND 20034/0223 T00670044
METAR KSEA 310153Z 19017G31KT 10SM FEW029 SCT050 BKN080 07/05 A2986 RMK AO2 PK WND 21035/0127 RAE41 SLP118 P0004 T00720050
METAR KSEA 310144Z 19020G30KT 10SM BKN050 BKN070 OVC085 07/06 A2986 RMK AO2 PK WND 21035/0127 RAE41 P0003 T00720056
METAR KSEA 310106Z 22021G32KT 7SM -RA SCT019 BKN026 OVC036 08/07 A2985 RMK AO2 PK WND 21032/0100 PRESRR P0002 T00830067
METAR KSEA 310053Z 21017G23KT 5SM -RA BR FEW017 SCT025 OVC037 09/07 A2983 RMK AO2 SLP110 P0013 T00890072
METAR KSEA 302353Z 20010KT 4SM -RA BR SCT035 OVC045 09/07 A2982 RMK AO2 SLP107 P0008 60010 T00890067 10117 20056 56034
METAR KSEA 302253Z 19012G21KT 10SM -RA OVC038 12/05 A2983 RMK AO2 SLP107 P0001 T01170050
METAR KSEA 302153Z 20008KT 10SM -RA BKN041 OVC050 10/06 A2988 RMK AO2 RAB31 SLP124 P0000 T01000061
METAR KSEA 302053Z 18007KT 10SM FEW020 BKN049 OVC060 08/05 A2993 RMK AO2 SLP142 60001 T00830050 56037
METAR KSEA 302003Z 16007KT 10SM FEW023 BKN047 OVC060 08/04 A2997 RMK AO2 T00830044
METAR KSEA 301953Z 16010KT 10SM BKN023 OVC055 08/04 A2997 RMK AO2 SLP158 T00830044
METAR KSEA 301853Z 16007KT 10SM OVC025 06/03 A3004 RMK AO2 RAE06 SLP180 P0001 T00560033
METAR KSEA 301809Z VRB03KT 3SM BR FEW020 BKN029 OVC045 06/04 A3005 RMK AO2 SFC VIS 5 RAE06 P0001 T00560044
METAR KSEA 301753Z 25003KT 2SM -RA BR SCT020 BKN029 OVC045 06/04 A3006 RMK AO2 RAB31 SLP187 P0001 60001 T00560039 10067 20056 58012
METAR KSEA 301736Z 00000KT 2SM -RA BR SCT020 BKN025 OVC031 06/04 A3006 RMK AO2 RAB31 P0001 T00560039
METAR KSEA 301735Z 00000KT 2 1/2SM -RA BR SCT020 OVC025 06/04 A3006 RMK AO2 RAB31 P0001 T00560039
METAR KSEA 301653Z 22004KT 8SM SCT026 OVC039 06/03 A3008 RMK AO2 SLP193 T00560028
METAR KSEA 301553Z 20004KT 10SM OVC040 06/01 A3009 RMK AO2 SLP198 T00560006
METAR KSEA 301453Z 19004KT 10SM OVC044 06/01 A3009 RMK AO2 SLP198 T00560006 56021
METAR KSEA 301353Z 18006KT 10SM OVC120 06/00 A3011 RMK AO2 SLP205 T00610000
METAR KSEA 301253Z 12009KT 10SM OVC070 06/02 A3013 RMK AO2 SLP211 T00610017
METAR KSEA 301153Z 24004KT 10SM FEW050 OVC130 06/01 A3015 RMK AO2 SLP219 60000 T00610011 10083 20050 56005
METAR KSEA 301053Z 25003KT 10SM FEW049 OVC110 06/00 A3015 RMK AO2 SLP219 T00610000
METAR KSEA 300953Z 13004KT 10SM OVC110 06/M01 A3015 RMK AO2 SLP219 T00611006
METAR KSEA 300853Z 14005KT 10SM OVC100 06/01 A3017 RMK AO2 RAE24 SLP225 P0000 60000 T00610006 58007
METAR KSEA 300753Z 14006KT 10SM -RA OVC070 07/01 A3018 RMK AO2 RAB21 SLP230 P0000 T00720006 401111011
METAR KSEA 300653Z 13005KT 10SM SCT055 OVC070 08/01 A3019 RMK AO2 SLP232 T00780006
METAR KSEA 300553Z 12004KT 10SM FEW050 OVC080 08/00 A3019 RMK AO2 SLP232 T00780000 10094 20078 53003
METAR KSEA 300453Z 17004KT 10SM FEW050 OVC100 08/00 A3018 RMK AO2 SLP229 T00830000
METAR KSEA 300353Z 17007KT 10SM FEW050 SCT110 OVC200 09/M01 A3018 RMK AO2 SLP229 T00891006
METAR KSEA 300253Z 17006KT 10SM FEW060 SCT110 BKN200 08/M01 A3018 RMK AO2 SLP231 T00831006 55000
METAR KSEA 300153Z 16005KT 10SM FEW070 BKN120 BKN200 08/M01 A3018 RMK AO2 SLP229 ACSL SE T00831011
METAR KSEA 300053Z 17005KT 10SM FEW080 BKN150 BKN200 08/M01 A3018 RMK AO2 SLP230 ACSL SE T00831011
METAR KSEA 292353Z 23005KT 10SM FEW080 BKN150 BKN200 09/M02 A3018 RMK AO2 SLP229 ACSL SE T00941017 10111 20050 55007
METAR KSEA 292253Z 23005KT 10SM FEW080 BKN150 BKN200 11/M02 A3018 RMK AO2 SLP230 ACSL SE T01061022
METAR KSEA 292153Z 19006KT 10SM FEW090 BKN160 BKN220 11/M02 A3019 RMK AO2 SLP231 ACSL SE T01111022
METAR KSEA 292053Z 00000KT 10SM SCT090 BKN120 BKN220 09/M01 A3021 RMK AO2 SLP237 ACSL SE T00891011 58018
METAR KSEA 291953Z 20003KT 10SM SCT100 BKN200 08/M03 A3023 RMK AO2 SLP248 T00781028
METAR KSEA 291853Z 16007KT 10SM SCT100 BKN250 06/M03 A3025 RMK AO2 SLP254 T00611028
METAR KSEA 291753Z 15008KT 10SM BKN100 BKN180 05/M04 A3026 RMK AO2 SLP257 T00501044 10056 21006 52011
METAR KSEA 291653Z 12004KT 10SM FEW100 BKN180 04/M03 A3025 RMK AO2 SLP253 ACSL SE T00441033
METAR KSEA 291553Z 03005KT 10SM FEW120 BKN250 02/M03 A3024 RMK AO2 SLP249 T00171033
METAR KSEA 291453Z 06004KT 10SM SCT250 01/M05 A3023 RMK AO2 SLP245 T00111050 55001
METAR KSEA 291353Z 02003KT 10SM BKN250 01/M06 A3022 RMK AO2 SLP243 T00061056
METAR KSEA 291253Z 19004KT 10SM BKN250 01/M05 A3022 RMK AO2 SLP244 T00061050
METAR KSEA 291153Z 14006KT 10SM SCT250 02/M05 A3023 RMK AO2 SLP245 T00171050 10044 21011 56007
METAR KSEA 291053Z 16005KT 10SM SCT250 M01/M06 A3024 RMK AO2 SLP249 T10061056
METAR KSEA 290953Z 12010KT 10SM CLR 02/M06 A3024 RMK AO2 SLP249 T00171056
METAR KSEA 290853Z 13004KT 10SM SCT250 02/M06 A3025 RMK AO2 SLP253 T00171056 58008
METAR KSEA 290753Z 14004KT 10SM CLR 02/M06 A3026 RMK AO2 SLP258 T00221056 401001022
METAR KSEA 290653Z 13008KT 10SM CLR 03/M05 A3027 RMK AO2 SLP259 T00281050
METAR KSEA 290553Z 15008KT 10SM CLR 04/M06 A3028 RMK AO2 SLP263 T00391056 10094 20033 51006
METAR KSEA 290453Z 13008KT 10SM CLR 04/M05 A3027 RMK AO2 SLP262 T00441050
METAR KSEA 290353Z 11008KT 10SM CLR 06/M05 A3027 RMK AO2 SLP260 T00611050
METAR KSEA 290253Z 11009KT 10SM FEW250 07/M04 A3026 RMK AO2 SLP257 T00671044 56004
METAR KSEA 290153Z 16004KT 10SM SCT250 08/M02 A3026 RMK AO2 SLP257 T00781022
METAR KSEA 290053Z 13006KT 10SM BKN250 09/M02 A3026 RMK AO2 SLP256 T00941022
METAR KSEA 282353Z 19005KT 10SM BKN250 09/M02 A3027 RMK AO2 SLP260 T00941017 10100 20000 55006
METAR KSEA 282253Z 22005KT 10SM BKN250 10/M02 A3027 RMK AO2 SLP259 T01001017
METAR KSEA 282153Z 18005KT 10SM BKN250 09/01 A3028 RMK AO2 SLP262 T00890006
METAR KSEA 282053Z 17003KT 10SM BKN220 09/M02 A3029 RMK AO2 SLP266 T00891017 58015
METAR KSEA 281953Z 18003KT 10SM BKN220 06/00 A3031 RMK AO2 SLP273 T00610000
METAR KSEA 281853Z 19004KT 4SM R16L/1400V4000FT BCFG FEW001 BKN220 03/02 A3034 RMK AO2 SLP282 FG BANK W T00330017
METAR KSEA 281847Z 18005KT 1 1/4SM R16L/1400VP6000FT BR FEW001 BKN220 03/01 A3034 RMK AO2
METAR KSEA 281753Z 16003KT 4SM R16L/1600VP6000FT BCFG FEW001 BKN220 00/00 A3034 RMK AO2 SLP284 FG BANK S-W T00000000 10028 21022 51007
METAR KSEA 281750Z 16003KT 4SM R16L/1200V4000FT BCFG FEW001 BKN220 00/00 A3034 RMK AO2 FG BANK S-W
METAR KSEA 281653Z 19003KT 4SM R16L/0500V0800FT BCFG SCT001 BKN220 00/M01 A3033 RMK AO2 SLP280 VIS S-W 1 T00001006
METAR KSEA 281627Z 16004KT 4SM R16L/0600V1400FT BCFG SCT001 BKN220 00/M01 A3032 RMK AO2 T00001006
METAR KSEA 281615Z 16003KT 1SM R16L/1000V4500FT BCFG BKN001 BKN220 M01/M01 A3032 RMK AO2 T10061006
METAR KSEA 281553Z 17003KT 1/2SM R16L/0400V0600FT FZFG BKN001 BKN220 M01/M01 A3032 RMK AO2 SLP277 T10061006
METAR KSEA 281537Z 17003KT 7SM R16L/0400V1000FT BCFG SCT001 BKN220 M01/M01 A3031 RMK AO2 VIS S-W 1 T10061006
METAR KSEA 281453Z 18003KT 7SM R16L/2400V3500FT BCFG FEW001 SCT220 M02/M02 A3032 RMK AO2 SLP277 T10171022 56003
METAR KSEA 281402Z 00000KT 7SM FEW001 M01/M05 A3032 RMK AO2 T10111050
METAR KSEA 281353Z 00000KT 10SM CLR 00/M05 A3032 RMK AO2 SLP277 T00001050
METAR KSEA 281253Z 00000KT 10SM CLR 01/M06 A3032 RMK AO2 SLP278 T00111056
METAR KSEA 281153Z 13004KT 10SM CLR 02/M06 A3033 RMK AO2 SLP279 T00171061 10056 21011 58008
METAR KSEA 281053Z 00000KT 10SM CLR 01/M04 A3035 RMK AO2 SLP287 T00061044
METAR KSEA 280953Z 00000KT 10SM CLR 01/M03 A3035 RMK AO2 SLP286 T00061033
METAR KSEA 280853Z 12004KT 10SM CLR 02/M04 A3035 RMK AO2 SLP287 T00221039 50002
METAR KSEA 280753Z 30003KT 10SM CLR 02/01 A3036 RMK AO2 SLP290 T00170006 400721006
METAR KSEA 280653Z 16005KT 10SM CLR 02/00 A3035 RMK AO2 SLP287 T00170000
METAR KSEA 280553Z 12004KT 7SM CLR 04/01 A3034 RMK AO2 SLP286 T00440011 10067 20017 53004
METAR KSEA 280453Z 00000KT 6SM BR CLR 02/01 A3034 RMK AO2 SLP284 T00220006
METAR KSEA 280353Z 00000KT 6SM BR CLR 03/01 A3034 RMK AO2 SLP283 T00280011
METAR KSEA 280253Z 00000KT 7SM CLR 03/01 A3033 RMK AO2 SLP282 T00280006 57002
METAR KSEA 280153Z 00000KT 8SM CLR 04/01 A3034 RMK AO2 SLP283 T00440011
METAR KSEA 280053Z 00000KT 7SM CLR 05/02 A3033 RMK AO2 SLP283 T00500017
METAR KSEA 272353Z 27003KT 10SM FEW250 07/02 A3034 RMK AO2 SLP283 T00670022 10072 20000 56009
METAR KSEA 272253Z 29003KT 9SM FEW250 07/02 A3034 RMK AO2 SLP284 T00720022
METAR KSEA 272153Z 28003KT 9SM FEW250 06/02 A3035 RMK AO2 SLP287 FG BANK W T00610022
METAR KSEA 272053Z 00000KT 7SM FEW002 SCT250 07/02 A3037 RMK AO2 SLP292 FG BANK W T00670017 58012
METAR KSEA 271953Z 00000KT 7SM FEW002 SCT250 05/01 A3039 RMK AO2 SLP300 FG BANK W T00500006
METAR KSEA 271930Z 00000KT 7SM SCT002 BKN250 03/01 A3040 RMK AO2 FG BANK W T00330011
METAR KSEA 271919Z 27003KT 2SM SCT002 BKN250 03/01 A3040 RMK AO2 SFC VIS 7 FG BANK W T00280011
METAR KSEA 271853Z 00000KT 1SM R16L/P6000FT BR SCT002 02/01 A3040 RMK AO2 TWR VIS 1 1/2 SLP305 T00220011
METAR KSEA 271837Z 22003KT 1SM R16L/P6000FT BR BKN002 01/01 A3040 RMK AO2 T00110006
METAR KSEA 271814Z 00000KT 1/4SM R16L/6000VP6000FT BR BKN002 00/00 A3040 RMK AO2 SFC VIS 3/4 T00000000
METAR KSEA 271800Z 00000KT 1/4SM R16L/1600VP6000FT BR BKN001 00/00 A3040 RMK AO2 SFC VIS 3/4 T00000000
METAR KSEA 271753Z 00000KT 1/4SM R16L/1200V1800FT BR BKN001 00/00 A3040 RMK AO2 SFC VIS 3/4 SLP305 T00000000 10000 21006 52007
METAR KSEA 271653Z 00000KT 1/8SM R16L/0800V1400FT FZFG VV001 M01/M01 A3039 RMK AO2 SFC VIS 1/4 SLP303 T10061006
METAR KSEA 271553Z 36003KT 0SM R16L/0700V1000FT FZFG VV001 M01/M01 A3038 RMK AO2 SFC VIS 1/8 SLP299 T10061011
METAR KSEA 271453Z 00000KT 0SM R16L/1000V1600FT FZFG VV001 M01/M01 A3038 RMK AO2 SFC VIS 1/16 SLP297 T10061006 53006
METAR KSEA 271353Z 00000KT 1/8SM R16L/1000V1200FT FZFG VV001 M01/M01 A3037 RMK AO2 SLP295 T10061011
METAR KSEA 271259Z 04006KT 1/8SM R16L/1000V1200FT FZFG VV001 M01/M01 A3036 RMK AO2 T10061011
METAR KSEA 271253Z 02006KT 1/4SM R16L/1000V1200FT FZFG VV001 M01/M01 A3036 RMK AO2 SLP291 T10061011
METAR KSEA 271243Z 04004KT 1/4SM R16L/1000V1200FT FZFG VV001 M01/M01 A3036 RMK AO2 T10061011
METAR KSEA 271233Z 05004KT 1/4SM R16L/1000V3500FT FZFG VV001 M01/M01 A3036 RMK AO2 T10061011
METAR KSEA 271153Z 05004KT 1/4SM R16L/1000V1200FT FZFG VV001 M01/M01 A3036 RMK AO2 SLP292 T10061006 10017 21006 57000
METAR KSEA 271053Z 03003KT 1/4SM R16L/1200V1400FT FG VV001 00/M01 A3036 RMK AO2 SLP292 T00001006
METAR KSEA 270953Z 04003KT 1/4SM R16L/1200V1600FT FG VV001 01/01 A3036 RMK AO2 SLP291 T00060006
METAR KSEA 270937Z 02005KT 1/4SM R16L/1200V2400FT FG VV001 01/01 A3036 RMK AO2 T00060006
METAR KSEA 270853Z 02006KT 1/4SM R16L/1000V1400FT FG VV001 01/01 A3036 RMK AO2 SLP292 T00110006 51008
METAR KSEA 270800Z 01006KT 1/4SM R16L/1200V2000FT FG VV001 01/01 A3036 RMK AO2 T00110011
METAR KSEA 270753Z 02005KT 1/4SM R16L/1200V2600FT FG VV001 01/01 A3036 RMK AO2 SLP292 T00110011 400390000
METAR KSEA 270733Z 36009KT 1/4SM R16L/1200V2600FT FG VV001 01/01 A3035 RMK AO2 T00110011
METAR KSEA 270714Z 36006KT 1/4SM R16L/1200V1800FT FG VV001 01/01 A3035 RMK AO2 T00110011
METAR KSEA 270704Z 36006KT 1/4SM R16L/1200V2800FT FG VV001 01/01 A3035 RMK AO2 T00110011
METAR KSEA 270653Z 01006KT 1/4SM R16L/1000V2000FT FG VV001 01/01 A3035 RMK AO2 SLP287 T00110006
METAR KSEA 270553Z 02007KT 1/4SM R16L/1200V1800FT FG VV001 01/00 A3034 RMK AO2 SLP283 T00060000 10039 20006 52010
METAR KSEA 270531Z 03007KT 1/4SM R16L/1200V1800FT FG VV001 01/01 A3034 RMK AO2 T00060006
METAR KSEA 270453Z 03008KT 1/4SM R16L/1400V2800FT FG VV001 01/01 A3032 RMK AO2 SLP279 T00060006
METAR KSEA 270408Z 04009KT 1/4SM R16L/2200VP6000FT FG VV001 01/00 A3032 RMK AO2 TWR VIS 1/2 T00060000
METAR KSEA 270353Z 03008KT 3/4SM R16L/5500VP6000FT BR OVC001 01/00 A3032 RMK AO2 SFC VIS 3 SLP278 T00060000
METAR KSEA 270340Z 04008KT 3/4SM R16L/4000VP6000FT BR OVC003 01/00 A3032 RMK AO2 SFC VIS 3 T00060000
METAR KSEA 270331Z 03007KT 5SM BR BKN003 01/M01 A3032 RMK AO2 T00111006
METAR KSEA 270322Z 05006KT 6SM BR SCT003 01/M01 A3031 RMK AO2 T00061006
METAR KSEA 270253Z 05007KT 7SM FEW250 01/M01 A3031 RMK AO2 SLP274 T00111006 53004
METAR KSEA 270153Z 08003KT 10SM FEW015 FEW100 SCT250 01/M01 A3030 RMK AO2 SLP271 T00111006
METAR KSEA 270053Z 09004KT 10SM FEW015 FEW100 SCT250 03/M01 A3029 RMK AO2 SLP269 T00281006
METAR KSEA 262353Z 07004KT 9SM FEW100 SCT250 03/00 A3030 RMK AO2 SLP270 T00330000 10039 20006 50002
METAR KSEA 262300Z 06006KT 9SM SCT008 04/01 A3030 RMK AO2 T00390006
METAR KSEA 262253Z 01005KT 9SM SCT010 03/00 A3030 RMK AO2 SLP271 T00330000
METAR KSEA 262153Z 03005KT 6SM BR OVC006 03/01 A3030 RMK AO2 SLP269 T00280006
METAR KSEA 262053Z 02005KT 3SM BR OVC006 03/01 A3029 RMK AO2 SFC VIS 5 SLP267 T00280006 50004
METAR KSEA 262013Z 04006KT 2SM BR OVC005 02/01 A3030 RMK AO2 SFC VIS 5 T00220006
METAR KSEA 261953Z 01006KT 2SM BR OVC004 02/01 A3030 RMK AO2 SFC VIS 5 SLP271 T00220006
METAR KSEA 261919Z 01004KT 1 1/2SM BR OVC003 02/01 A3030 RMK AO2 SFC VIS 2 T00170006
METAR ESSA 312050Z 32009KT 9999 BKN027 M06/M09 Q1003 NOSIG
METAR ESSA 312020Z 31010KT 9999 OVC024 M06/M09 Q1004 NOSIG
METAR ESSA 311950Z 31011KT 9999 FEW015 OVC024 M06/M09 Q1004 NOSIG
METAR ESSA 311920Z 30009KT 9999 BKN024 M05/M09 Q1004 NOSIG
METAR ESSA 311850Z 31010KT 9999 BKN022 M05/M09 Q1004 NOSIG
METAR ESSA 311820Z 31010KT 9999 BKN024 M05/M09 Q1004 NOSIG
METAR ESSA 311750Z 31011KT 9999 BKN024 M05/M08 Q1004 NOSIG
METAR ESSA 311720Z 32011KT 9999 BKN024 M05/M08 Q1004 NOSIG
METAR ESSA 311650Z 34011KT 9999 BKN022 M05/M09 Q1004 NOSIG
METAR ESSA 311620Z 34010KT 300V010 9999 BKN022 M04/M09 Q1004 NOSIG
METAR ESSA 311550Z 35014KT 9999 BKN023 M04/M09 Q1004 NOSIG
METAR ESSA 311520Z 36014KT 9999 BKN024 M04/M09 Q1004 NOSIG
METAR ESSA 311450Z 35013KT 9999 BKN022 M04/M09 Q1004 NOSIG
METAR ESSA 311420Z 36013KT 9999 BKN022 M04/M08 Q1003 NOSIG
METAR ESSA 311350Z 35016KT 9999 BKN023 M04/M08 Q1003 NOSIG
METAR ESSA 311320Z 35015KT 9999 BKN022 M04/M08 Q1003 NOSIG
METAR ESSA 311250Z 35015KT 9999 BKN023 M04/M08 Q1003 NOSIG
METAR ESSA 311220Z 35011KT 320V020 9999 BKN020 M04/M08 Q1003 NOSIG
METAR ESSA 311150Z 36014KT 9999 BKN022 M04/M08 Q1003 NOSIG
METAR ESSA 311120Z 34014KT 9999 BKN023 M03/M08 Q1003 NOSIG
METAR ESSA 311050Z 36012KT 9999 BKN020 M03/M07 Q1003 NOSIG
METAR ESSA 311020Z 36014KT 9999 BKN020 M03/M07 Q1002 NOSIG
METAR ESSA 310950Z 34010KT 9999 OVC022 M03/M06 Q1002 NOSIG
METAR ESSA 310920Z 33009KT 9999 BKN024 M03/M07 Q1002 NOSIG
METAR ESSA 310850Z 33009KT 9999 BKN023 M04/M06 Q1002 NOSIG
METAR ESSA 310820Z 32010KT 9999 BKN028 M04/M06 Q1002 NOSIG
METAR ESSA 310750Z 33009KT 9999 OVC030 M04/M06 Q1002 NOSIG
METAR ESSA 310720Z 33010KT 9999 OVC030 M04/M06 Q1002 NOSIG
METAR ESSA 310650Z 32010KT 9999 OVC026 M04/M06 Q1002 NOSIG
METAR ESSA 310620Z 32009KT 9999 OVC030 M04/M06 Q1002 NOSIG
METAR ESSA 310550Z 32009KT 9999 OVC030 M04/M06 Q1002 NOSIG
METAR ESSA 310520Z 33010KT 9999 OVC031 M04/M06 Q1002 NOSIG
METAR ESSA 310450Z 32011KT 9999 OVC029 M04/M06 Q1002 NOSIG
METAR ESSA 310420Z 31010KT 9999 OVC037 M04/M06 Q1002 NOSIG
METAR ESSA 310350Z 32011KT 9999 FEW034 BKN042 M04/M06 Q1002 NOSIG
METAR ESSA 310320Z 32010KT 9999 OVC032 M03/M06 Q1002 NOSIG
METAR ESSA 310250Z 32010KT 9999 BKN033 M03/M06 Q1002 NOSIG
METAR ESSA 310220Z 33012KT 9999 SCT040 M03/M06 Q1002 NOSIG
METAR ESSA 310150Z 33011KT 9999 BKN042 M03/M06 Q1002 NOSIG
METAR ESSA 310120Z 32013KT 9999 BKN036 M03/M06 Q1002 NOSIG
METAR ESSA 310050Z 33013KT 9999 BKN030 M02/M06 Q1002 NOSIG
METAR ESSA 310020Z 32014KT 9999 BKN031 M02/M06 Q1003 NOSIG
METAR ESSA 302350Z 32013KT 9999 BKN033 M02/M05 Q1003 NOSIG
METAR ESSA 302320Z 32015KT 9999 BKN034 M02/M05 Q1003 NOSIG
METAR ESSA 302250Z 33016KT 9999 BKN035 M02/M05 Q1002 NOSIG
METAR ESSA 302220Z 32015KT 9999 BKN035 M02/M05 Q1003 NOSIG
METAR ESSA 302150Z 33014KT 9999 BKN029 M02/M05 Q1003 NOSIG
METAR ESSA 302120Z 32014KT 9999 BKN032 M02/M05 Q1003 NOSIG
METAR ESSA 302050Z 32016KT 9999 BKN032 M02/M05 Q1002 NOSIG
METAR ESSA 302020Z 32016KT 9999 BKN029 M01/M05 Q1002 NOSIG
METAR ESSA 301950Z 33016KT 9999 BKN031 M01/M05 Q1002 NOSIG
METAR ESSA 301920Z 33017KT 9999 BKN027 OVC033 M01/M05 Q1002 NOSIG
METAR ESSA 301850Z 33017KT 9999 BKN029 M02/M04 Q1002 NOSIG
METAR ESSA 301820Z 33017KT 9999 R01L/P2000N R19R///// R01R/P2000N R19L/P2000N BKN031 M02/M05 Q1002 NOSIG
METAR ESSA 301750Z 33016KT CAVOK M02/M05 Q1001 NOSIG
METAR ESSA 301720Z 33016KT CAVOK M03/M06 Q1001 NOSIG
METAR ESSA 301650Z 33017KT CAVOK M03/M06 Q1001 NOSIG
METAR ESSA 301620Z 34019KT 9999 FEW022 SCT029 M03/M06 Q1000 NOSIG
METAR ESSA 301550Z 34020KT 9999 -SN BKN016 OVC021 M03/M05 Q1000 NOSIG
METAR ESSA 301520Z 33018KT 6000 -SN OVC016 M03/M05 Q1000 TEMPO 4000
METAR ESSA 301450Z 33021KT 7000 R01L/P2000N R19R///// R01R/P2000N R19L/P2000N -SN BKN016 OVC021 M03/M05 Q0999 TEMPO 4000
METAR ESSA 301420Z 34021KT 6000 R01L/P2000N R19R///// R01R/P2000N R19L/P2000N -SN OVC015 M03/M05 Q0998 TEMPO 4000
METAR ESSA 301350Z 34021G32KT 9999 -SN BKN014 M03/M05 Q0997 TEMPO 4000 -SN
METAR ESSA 301320Z 33019G30KT 9000 -SN BKN014 OVC018 M03/M05 Q0997 TEMPO 8000 -SN
METAR ESSA 301250Z 34023G33KT 4200 R01L/P2000N R19R///// R01R/P2000N R19L/P2000N -SN OVC018 M03/M05 Q0996 TEMPO 8000 -SN
METAR ESSA 301220Z 33022G35KT 3700 R01L/P2000N R19R/P2000N R01R/P2000N R19L/P2000N -SN BKN015 OVC024 M03/M05 Q0995 TEMPO 8000 -SN
METAR ESSA 301150Z 34021G32KT 9999 -SN BKN013 OVC016 M03/M05 Q0994 TEMPO 4000 SG
METAR ESSA 301120Z 34023G38KT 9999 R01L/P2000N R19R///// R01R/P2000N R19L/P2000N BKN015 M02/M04 Q0993 TEMPO 4000 SG
METAR ESSA 301050Z 34024G35KT 9999 -SN OVC015 M02/M04 Q0992 TEMPO 4000 SG
METAR ESSA 301020Z 34028G44KT 9999 -SN OVC016 M02/M04 Q0991 TEMPO 4000 SG
METAR ESSA 300950Z 34024G35KT 9999 -SN OVC014 M02/M03 Q0990 NOSIG
METAR ESSA 300920Z 34023G35KT 4700 R01L/P2000N R19R///// R01R/P2000N R19L/P2000N -SN BKN013 M01/M03 Q0989 BECMG 9000
METAR ESSA 300850Z 34023G37KT 4100 R01L/P2000N R19R///// R01R/P2000N R19L/P2000N -SN BKN016 M02/M03 Q0988 BECMG 9000
METAR ESSA 300820Z 34022G33KT 4500 -SN BKN013 OVC018 M02/M03 Q0987 BECMG 9000
METAR ESSA 300750Z 34022KT 3800 R01L/P2000N R19R///// R01R/P2000N R19L/P2000N -SN FEW010 SCT013 BKN018 M02/M03 Q0986 TEMPO 3000
METAR ESSA 300720Z 33024G35KT 2500 -SN BKN012 OVC019 M02/M02 Q0984 TEMPO 3000
METAR ESSA 300650Z 34023KT 2000 R01L/P2000N R19R///// R01R/P2000N R19L/P2000N -SN BKN013 OVC018 M01/M02 Q0983 TEMPO 2000
METAR ESSA 300620Z 34024G37KT 3000 -SN BKN014 OVC019 M01/M02 Q0982 TEMPO 2000
METAR ESSA 300550Z 34023G35KT 3100 -SN VV016 M01/M02 Q0980 TEMPO 3000
METAR ESSA 300520Z 34025G39KT 1100 R01L/P2000N R19R///// R01R/P2000N R19L/P2000N -SN VV013 M01/M01 Q0978 TEMPO 3000
METAR ESSA 300450Z 34025G38KT 2400 -SN VV014 M00/M01 Q0977 TEMPO 1400 SN VV009
METAR ESSA 300420Z 34027G39KT 2200 R01L/P2000N R19R///// R01R/P2000N R19L/P2000N -SN FEW008 BKN014 M00/M00 Q0975 TEMPO 1400 SN VV010
METAR ESSA 300350Z 34024KT 1400 R01L/P2000N R19R///// R01R/P2000N R19L/P2000N -SN VV012 M01/M01 Q0974 TEMPO 1400 SN VV010
METAR ESSA 300320Z 34022KT 2000 R01L/P2000N R19R///// R01R/P2000N R19L/P2000N -SN VV009 M00/M01 Q0972 TEMPO 1400 SN VV010
METAR ESSA 300250Z 34020G33KT 2200 R01L/P2000N R19R///// R01R/P2000N R19L/P2000N -SN FEW007 BKN012 OVC016 00/M00 Q0971 TEMPO 1400 SN VV010
METAR ESSA 300220Z 32018KT 4000 -SN FEW007 OVC010 00/M00 Q0968 TEMPO 1400 SN VV010
METAR ESSA 300150Z 32018KT 4000 -SN FEW007 OVC010 00/M00 Q0968 TEMPO 1400 SN VV010
METAR ESSA 300050Z 31019KT 4900 -SN OVC006 M00/M00 Q0966 TEMPO 1400 SN VV010
METAR ESSA 300020Z 32017KT 2500 -SN OVC008 01/M00 Q0966 TEMPO 1400 SN VV010
METAR ESSA 292350Z 32017KT 5000 DZ BKN007 01/01 Q0965 BECMG 2000 -SN
METAR ESSA 292320Z 31018KT 5000 -RA SCT006 BKN008 OVC012 03/02 Q0964 BECMG 2000 -SN
METAR ESSA 292250Z 31016KT 3500 -RA SCT006 OVC012 03/02 Q0963 TEMPO BKN010
METAR ESSA 292220Z 30012KT 9000 -RA BKN008 04/03 Q0963 TEMPO BKN010
METAR ESSA 292150Z 28010KT 9000 DZ BKN005 04/04 Q0962 TEMPO BKN010
METAR ESSA 292120Z 27011KT 6000 DZ BKN006 04/04 Q0963 TEMPO 3000 -RA BKN010
METAR ESSA 292050Z 26008KT 9999 BKN006 04/04 Q0963 TEMPO 3000 -RA BKN010
METAR ESSA 292020Z 24007KT 5000 -RA BKN005 04/04 Q0963 BECMG OVC005
METAR ESSA 291950Z 23009KT 4000 RA BKN004 04/04 Q0964 BECMG OVC005
METAR ESSA 291920Z 21010KT 5000 RA OVC006 04/04 Q0964 BECMG OVC005
METAR ESSA 291850Z 20010KT 6000 RA SCT006 BKN008 BKN011 04/04 Q0965 BECMG OVC005
METAR ESSA 291820Z 20011KT 6000 RA BKN004 04/04 Q0966 BECMG OVC005
METAR ESSA 291750Z 21011KT 3000 RA BKN004 OVC008 04/04 Q0967 BECMG 5000 OVC005
METAR ESSA 291720Z 18012KT 9000 -RA BKN004 03/03 Q0968 BECMG OVC005
METAR ESSA 291650Z 17014KT 3900 -RA OVC003 02/02 Q0970 BECMG OVC005
METAR ESSA 291550Z 17013KT 2500 DZ OVC004 02/02 Q0973 NOSIG
METAR ESSA 291520Z 17013KT 2500 DZ OVC004 01/01 Q0974 NOSIG
METAR ESSA 291450Z 17013KT 2400 DZ OVC003 02/01 Q0976 NOSIG
METAR ESSA 291420Z 17013KT 3000 -DZ OVC003 01/01 Q0977 NOSIG
METAR ESSA 291350Z 17013KT 4600 -RASN OVC003 01/01 Q0979 NOSIG
METAR ESSA 291320Z 18012KT 5000 -RA OVC003 01/01 Q0981 NOSIG
METAR ESSA 291250Z 18012KT 8000 -RA OVC003 01/01 Q0982 NOSIG
METAR ESSA 291220Z 18014KT 7000 DZ OVC003 01/01 Q0984 BECMG 2500 BR -DZ
METAR ESSA 291150Z 18012KT 9000 -DZ OVC004 01/00 Q0985 BECMG 2500 BR -DZ
METAR ESSA 291120Z 18014KT 8000 -RA OVC004 01/01 Q0987 BECMG 2500 BR -DZ
METAR ESSA 291050Z 18014KT 8000 -RA OVC005 00/00 Q0988 TEMPO 4000 RADZ OVC003
METAR ESSA 291020Z 18014KT 7000 -RA OVC005 00/M00 Q0989 TEMPO 4000 RADZ OVC003
METAR ESSA 290950Z 18013KT 7000 -SN OVC005 M00/M01 Q0990 TEMPO 4000 RA
METAR ESSA 290920Z 18014KT 6000 -SNRA BKN006 OVC010 00/M00 Q0992 TEMPO 4000 RA
METAR ESSA 290850Z 18014KT 9999 -RA BKN007 00/M00 Q0993 TEMPO 4000 RA
METAR ESSA 290820Z 18016KT 4200 -FZRA BKN006 OVC010 M00/M01 Q0994 TEMPO 4000 RASN
METAR ESSA 290750Z 18016KT 7000 -SN BKN006 OVC010 M00/M01 Q0995 TEMPO 4000 RASN
METAR ESSA 290720Z 18016KT 2700 -SN BKN006 OVC010 M00/M01 Q0996 TEMPO 4000 RASN
METAR ESSA 290650Z 18015KT 7000 -SNRA BKN008 M00/M01 Q0997 TEMPO 4000 RASN
METAR ESSA 290620Z 19014KT 9999 -RA OVC012 00/M01 Q0998 TEMPO 4000 RASN BKN008
METAR ESSA 290550Z 19016KT 9999 -DZ BKN015 00/M02 Q0999 TEMPO 4000 RASN BKN008
METAR ESSA 290520Z 19015KT 9999 FEW015 BKN038 00/M02 Q0999 TEMPO 4000 SN BKN008
METAR ESSA 290450Z 19014KT 9999 SCT037 BKN051 00/M02 Q1000 TEMPO 4000 SN BKN008
METAR ESSA 290420Z 19013KT 9999 FEW027 BKN061 M00/M03 Q1002 TEMPO 4000 SN BKN008
METAR ESSA 290350Z 18011KT 9999 SCT037 BKN049 BKN100 M01/M03 Q1003 TEMPO 4000 SN BKN008
METAR ESSA 290320Z 20012KT CAVOK M01/M04 Q1004 NOSIG
METAR ESSA 290250Z 20010KT CAVOK M01/M04 Q1005 NOSIG
METAR ESSA 290220Z 20010KT CAVOK M01/M05 Q1006 NOSIG
METAR ESSA 290150Z 22011KT CAVOK M01/M05 Q1007 NOSIG
METAR ESSA 290120Z 21010KT CAVOK M01/M06 Q1008 NOSIG
METAR ESSA 290050Z 20009KT CAVOK M01/M06 Q1008 NOSIG
METAR ESSA 290020Z 21008KT CAVOK M02/M07 Q1009 NOSIG
METAR ESSA 282350Z 20009KT CAVOK M02/M07 Q1010 NOSIG
METAR ESSA 282320Z 21008KT CAVOK M02/M07 Q1011 NOSIG
METAR ESSA 282250Z 21008KT CAVOK M03/M07 Q1011 NOSIG
METAR ESSA 282220Z 20007KT CAVOK M03/M07 Q1012 NOSIG
METAR ESSA 282150Z 19007KT CAVOK M03/M07 Q1013 NOSIG
METAR ESSA 282120Z 18005KT CAVOK M03/M07 Q1013 NOSIG
METAR ESSA 282050Z 23005KT CAVOK M03/M07 Q1014 NOSIG
METAR ESSA 282020Z 24006KT CAVOK M03/M07 Q1014 NOSIG
METAR ESSA 281950Z 25006KT CAVOK M04/M07 Q1015 NOSIG
METAR ESSA 281920Z 26007KT CAVOK M04/M07 Q1015 NOSIG
METAR ESSA 281850Z 25005KT CAVOK M03/M07 Q1015 NOSIG
METAR ESSA 281820Z 27008KT CAVOK M03/M07 Q1015 NOSIG
METAR ESSA 281750Z 27009KT CAVOK M02/M07 Q1015 NOSIG
METAR ESSA 281720Z 28009KT CAVOK M02/M07 Q1016 NOSIG
METAR ESSA 281650Z 28009KT CAVOK M02/M07 Q1016 NOSIG
METAR ESSA 281620Z 29010KT CAVOK M02/M07 Q1016 NOSIG
METAR ESSA 281550Z 28009KT CAVOK M01/M07 Q1016 NOSIG
METAR ESSA 281520Z 29009KT CAVOK M01/M07 Q1015 NOSIG
METAR ESSA 281450Z 30010KT CAVOK M01/M07 Q1015 NOSIG
METAR ESSA 281420Z 30010KT CAVOK M00/M07 Q1015 NOSIG
METAR ESSA 281350Z 31011KT CAVOK 00/M07 Q1014 NOSIG
METAR ESSA 281320Z 31012KT CAVOK 00/M07 Q1014 NOSIG
METAR ESSA 281250Z 32015KT CAVOK 00/M06 Q1013 NOSIG
METAR ESSA 281220Z 32014KT CAVOK 00/M06 Q1013 NOSIG
METAR ESSA 281150Z 32015KT CAVOK 00/M06 Q1013 NOSIG
METAR ESSA 281120Z 32015KT CAVOK M00/M06 Q1012 NOSIG
METAR ESSA 281050Z 33016KT CAVOK M00/M06 Q1012 NOSIG
METAR ESSA 281020Z 33017G28KT CAVOK M00/M06 Q1012 NOSIG
METAR ESSA 280950Z 33015KT CAVOK M00/M06 Q1011 NOSIG
METAR ESSA 280920Z 33017KT CAVOK M00/M05 Q1011 NOSIG
METAR ESSA 280850Z 33015KT CAVOK M01/M05 Q1010 NOSIG
METAR ESSA 280820Z 33017KT CAVOK M01/M05 Q1009 NOSIG
METAR ESSA 280750Z 33016KT CAVOK M01/M04 Q1008 NOSIG
METAR ESSA 280720Z 33018KT 9999 BKN032 M00/M04 Q1007 NOSIG
METAR ESSA 280650Z 33018KT 9999 BKN031 M01/M04 Q1006 NOSIG
METAR ESSA 280620Z 33018KT 9999 BKN028 M00/M04 Q1006 NOSIG
METAR ESSA 280550Z 33019G30KT 9999 BKN027 M00/M04 Q1005 NOSIG
METAR ESSA 280520Z 33018KT 9999 FEW011 BKN031 M00/M02 Q1004 NOSIG
METAR ESSA 280450Z 32015G27KT 4300 -SN SCT007 BKN011 M00/M01 Q1004 BECMG BKN012
METAR ESSA 280420Z 33015KT 8000 BKN007 OVC011 M01/M01 Q1003 BECMG BKN012
METAR ESSA 280350Z 33015KT 7000 -SN BKN007 M01/M01 Q1002 BECMG BKN012
METAR ESSA 280320Z 33014KT 9999 OVC008 M01/M01 Q1002 BECMG BKN012
METAR ESSA 280250Z 33015KT 6000 OVC007 M01/M01 Q1001 BECMG BKN012
METAR ESSA 280220Z 33015KT 7000 OVC007 M01/M01 Q1000 BECMG BKN012
METAR ESSA 280150Z 33014KT 9999 -SN BKN007 M01/M01 Q1000 BECMG BKN012
METAR ESSA 280120Z 33010KT 2900 -SN BKN006 M01/M01 Q0999 BECMG 5000 NSW BKN012
METAR ESSA 280050Z 35011KT 2000 -SN BKN007 M00/M00 Q0999 BECMG 5000 NSW BKN012
METAR ESSA 280020Z 36014KT 2600 -SN SCT007 BKN009 M00/M01 Q0998 BECMG 5000 NSW BKN012
METAR ESSA 272350Z 35013KT 2000 -SN BKN007 M00/M01 Q0997 BECMG BKN012
METAR ESSA 272320Z 36015G28KT 9999 BKN006 00/M01 Q0997 BECMG BKN012
METAR ESSA 272250Z 36015KT 9999 OVC007 00/M01 Q0995 BECMG BKN012
METAR ESSA 272220Z 36017KT 9999 -DZ BKN007 00/M01 Q0995 BECMG BKN012
METAR ESSA 272150Z 36019G30KT 9999 BKN005 01/M00 Q0994 TEMPO 4000 -RASN
METAR ESSA 272120Z 35014KT 6000 -DZ OVC005 01/00 Q0993 TEMPO 4000 -RASN
METAR ESSA 272050Z 35015KT 9999 -DZ OVC006 00/M00 Q0992 RESG TEMPO 4000 -RASN
METAR ESSA 272020Z 36015KT 4100 -RASN OVC006 00/M00 Q0991 TEMPO 4000 -RASN
METAR ESSA 271950Z 35013KT 5000 -DZ OVC005 00/M00 Q0990 TEMPO 4000 -RASN
METAR ESSA 271920Z 35012KT 9999 -DZ OVC005 00/M00 Q0989 BECMG BKN005
METAR ESSA 271850Z 35012KT 9000 -RASN OVC005 00/M00 Q0989 BECMG BKN005
METAR ESSA 271750Z 36012KT 9000 -DZ OVC003 01/01 Q0987 BECMG BKN005
METAR ESSA 271720Z 36009KT 9999 -DZ OVC003 01/01 Q0987 BECMG BKN005
METAR ESSA 271650Z 35009KT 8000 -DZ OVC004 00/00 Q0986 TEMPO 4000 BR
METAR ESSA 271620Z 01010KT 9999 -DZ OVC004 01/01 Q0986 TEMPO 4000 BR
METAR ESSA 271550Z 36007KT 5000 DZ OVC003 01/01 Q0985 TEMPO 4000 BR
METAR ESSA 271520Z 01005KT 2000 -DZ OVC002 01/01 Q0985 TEMPO 4000 BR
METAR ESSA 271450Z 02006KT 2200 DZ VV002 01/01 Q0985 TEMPO 4000 BR
METAR ESSA 271420Z 03006KT 2900 DZ VV003 01/01 Q0985 TEMPO 2000 BR
METAR ESSA 271350Z 01004KT 3000 -RA OVC003 02/02 Q0985 TEMPO 2000 BR
METAR ESSA 271320Z 00000KT 8000 OVC003 02/02 Q0985 TEMPO 2000 BR
METAR ESSA 271250Z 17002KT 8000 OVC003 02/02 Q0985 NOSIG
METAR ESSA 271220Z 16004KT 110V190 4500 BR OVC003 02/02 Q0985 NOSIG
METAR ESSA 271150Z 16005KT 4000 BR OVC003 02/02 Q0986 NOSIG
METAR ESSA 271120Z 16005KT 3000 BR OVC003 01/01 Q0986 NOSIG
METAR ESSA 271050Z 15006KT 5000 OVC003 01/01 Q0987 NOSIG
METAR ESSA 271020Z 15006KT 6000 -DZ OVC003 01/01 Q0988 NOSIG
METAR ESSA 270950Z 15007KT 2700 -RA BR OVC004 02/01 Q0988 NOSIG
METAR ESSA 270920Z 14007KT 6000 -RA BKN004 01/00 Q0989 NOSIG
METAR ESSA 270850Z 15006KT 2600 -RA OVC004 01/00 Q0989 NOSIG
METAR ESSA 270820Z 15005KT 3500 -DZ BKN004 01/00 Q0990 BECMG BKN005
METAR ESSA 270750Z 17007KT 4000 DZ FEW005 BKN010 00/M00 Q0991 BECMG BKN005
METAR ESSA 270720Z 20007KT 9999 FEW012 BKN022 01/M00 Q0992 NOSIG
METAR ESSA 270650Z 20008KT 9999 BKN027 01/M00 Q0992 NOSIG
METAR ESSA 270620Z 19009KT 9999 BKN027 00/M01 Q0993 NOSIG
METAR ESSA 270550Z 18008KT 9999 SCT037 BKN057 01/M01 Q0993 NOSIG
METAR ESSA 270520Z 19007KT 9999 SCT044 BKN072 01/M00 Q0994 NOSIG
METAR ESSA 270450Z 21007KT 9999 BKN043 00/M01 Q0995 NOSIG
METAR ESSA 270420Z 19007KT CAVOK M00/M01 Q0996 NOSIG
METAR ESSA 270350Z 22007KT CAVOK M00/M02 Q0996 NOSIG
METAR ESSA 270320Z 23009KT CAVOK M00/M02 Q0997 NOSIG
METAR ESSA 270250Z 21006KT CAVOK 00/M01 Q0997 NOSIG
METAR ESSA 270220Z 21006KT CAVOK M01/M02 Q0998 NOSIG
METAR ESSA 270150Z 21006KT CAVOK M01/M03 Q0998 NOSIG
METAR ESSA 270120Z 22007KT CAVOK M01/M03 Q0999 NOSIG
METAR ESSA 270050Z 24007KT CAVOK M01/M03 Q1000 NOSIG
METAR ESSA 270020Z 24009KT CAVOK M01/M03 Q1000 NOSIG
METAR ESSA 262350Z 24008KT CAVOK M02/M04 Q1000 NOSIG
METAR ESSA 262320Z 25009KT CAVOK M02/M03 Q1001 NOSIG
METAR ESSA 262250Z 25010KT CAVOK M01/M03 Q1001 NOSIG
METAR ESSA 262220Z 25010KT CAVOK M01/M03 Q1001 NOSIG
METAR ESSA 262150Z 25008KT CAVOK M01/M03 Q1002 NOSIG
METAR ESSA 262120Z 26008KT CAVOK M01/M03 Q1002 NOSIG